STARLINK-34759          
1 65096U 25167U   26068.26133918  .00027420  00000+0  93482-3 0  9995
2 65096  53.1609  28.6907 0001096  80.5699 279.5426 15.30188438 33414
KUIPER-00226            
1 67785U 26030X   26068.62629313  .00046834  00000+0  15530-2 0  9998
2 67785  51.8814 220.1252 0017713  64.2781 296.0030 15.30655594  5078
