[{"OBJECT_NAME":"STARLINK-34759","OBJECT_ID":"2025-167U","EPOCH":"2026-03-09T06:16:19.705152","MEAN_MOTION":15.30188438,"ECCENTRICITY":0.00010963,"INCLINATION":53.1609,"RA_OF_ASC_NODE":28.6907,"ARG_OF_PERICENTER":80.5699,"MEAN_ANOMALY":279.5426,"EPHEMERIS_TYPE":0,"CLASSIFICATION_TYPE":"U","NORAD_CAT_ID":65096,"ELEMENT_SET_NO":999,"REV_AT_EPOCH":3341,"BSTAR":0.00093481697,"MEAN_MOTION_DOT":0.0002742,"MEAN_MOTION_DDOT":0},{"OBJECT_NAME":"KUIPER-00226","OBJECT_ID":"2026-030X","EPOCH":"2026-03-09T15:01:51.726432","MEAN_MOTION":15.30655594,"ECCENTRICITY":0.0017713,"INCLINATION":51.8814,"RA_OF_ASC_NODE":220.1252,"ARG_OF_PERICENTER":64.2781,"MEAN_ANOMALY":296.003,"EPHEMERIS_TYPE":0,"CLASSIFICATION_TYPE":"U","NORAD_CAT_ID":67785,"ELEMENT_SET_NO":999,"REV_AT_EPOCH":507,"BSTAR":0.001553,"MEAN_MOTION_DOT":0.00046834,"MEAN_MOTION_DDOT":0}]
